{
  "norad_id": 55012,
  "name": "CONNECTA T1.2",
  "history": [
    {
      "epoch": "2026-03-28T18:17:26.793024Z",
      "apogee_km": 433.58260145447275,
      "perigee_km": 424.41461507455006,
      "latitude_deg": 3.262541577448377e-05,
      "longitude_deg": 56.771246878989004,
      "height_km": 428.74932365274935,
      "semi_major_axis_km": 6807.135608264511,
      "eccentricity": 0.00067341,
      "inclination_deg": 97.3356,
      "raan_deg": 157.3108,
      "arg_perigee_deg": 42.7228,
      "mean_anomaly_deg": 317.4544,
      "mean_motion_rev_day": 15.45810163
    },
    {
      "epoch": "2026-03-29T03:36:44.076960Z",
      "apogee_km": 433.43323563426475,
      "perigee_km": 424.3417737058271,
      "latitude_deg": -1.8515239382762627e-05,
      "longitude_deg": -83.04088206839832,
      "height_km": 428.5807153762952,
      "semi_major_axis_km": 6807.024504670046,
      "eccentricity": 0.0006678,
      "inclination_deg": 97.3354,
      "raan_deg": 157.7035,
      "arg_perigee_deg": 41.0992,
      "mean_anomaly_deg": 319.0759,
      "mean_motion_rev_day": 15.45848009
    },
    {
      "epoch": "2026-03-30T04:28:05.826720Z",
      "apogee_km": 433.0514059888819,
      "perigee_km": 424.0747299392506,
      "latitude_deg": 4.703431052513381e-05,
      "longitude_deg": -95.85491516881356,
      "height_km": 428.11445395365786,
      "semi_major_axis_km": 6806.700067964066,
      "eccentricity": 0.0006594,
      "inclination_deg": 97.3354,
      "raan_deg": 158.7509,
      "arg_perigee_deg": 37.3439,
      "mean_anomaly_deg": 322.8268,
      "mean_motion_rev_day": 15.45958533
    },
    {
      "epoch": "2026-03-30T10:40:55.289568Z",
      "apogee_km": 432.9513975577065,
      "perigee_km": 424.0149859079802,
      "latitude_deg": -5.3405048625837014e-05,
      "longitude_deg": 170.9457135672185,
      "height_km": 428.0108603758859,
      "semi_major_axis_km": 6806.6201917328435,
      "eccentricity": 0.00065645,
      "inclination_deg": 97.3354,
      "raan_deg": 159.0128,
      "arg_perigee_deg": 36.4907,
      "mean_anomaly_deg": 323.6788,
      "mean_motion_rev_day": 15.45985746
    },
    {
      "epoch": "2026-03-30T18:26:56.713344Z",
      "apogee_km": 432.84419677661117,
      "perigee_km": 423.95336360980673,
      "latitude_deg": 5.167799768443997e-05,
      "longitude_deg": 54.448086180778596,
      "height_km": 427.8901005408521,
      "semi_major_axis_km": 6806.535780193209,
      "eccentricity": 0.00065311,
      "inclination_deg": 97.3353,
      "raan_deg": 159.3401,
      "arg_perigee_deg": 35.2825,
      "mean_anomaly_deg": 324.8856,
      "mean_motion_rev_day": 15.46014505
    },
    {
      "epoch": "2026-03-31T17:44:57.443136Z",
      "apogee_km": 432.4833726828274,
      "perigee_km": 423.7849581334358,
      "latitude_deg": -2.146420403450998e-05,
      "longitude_deg": 64.96975072591933,
      "height_km": 427.5447607977815,
      "semi_major_axis_km": 6806.271165408131,
      "eccentricity": 0.000639,
      "inclination_deg": 97.3353,
      "raan_deg": 160.3217,
      "arg_perigee_deg": 31.4432,
      "mean_anomaly_deg": 328.7198,
      "mean_motion_rev_day": 15.46104665
    },
    {
      "epoch": "2026-04-01T04:37:20.185536Z",
      "apogee_km": 432.3357386237585,
      "perigee_km": 423.72321556364386,
      "latitude_deg": -7.343508328812957e-06,
      "longitude_deg": -98.11284806449994,
      "height_km": 427.415900621742,
      "semi_major_axis_km": 6806.166477093701,
      "eccentricity": 0.0006327,
      "inclination_deg": 97.335,
      "raan_deg": 160.7804,
      "arg_perigee_deg": 29.8452,
      "mean_anomaly_deg": 330.3157,
      "mean_motion_rev_day": 15.46140337
    },
    {
      "epoch": "2026-04-02T03:55:14.193408Z",
      "apogee_km": 432.02808408627516,
      "perigee_km": 423.47852468590645,
      "latitude_deg": -3.529817364446047e-05,
      "longitude_deg": -87.56230481724775,
      "height_km": 427.0497028948812,
      "semi_major_axis_km": 6805.890304386091,
      "eccentricity": 0.0006281,
      "inclination_deg": 97.3344,
      "raan_deg": 161.7628,
      "arg_perigee_deg": 26.4911,
      "mean_anomaly_deg": 333.6658,
      "mean_motion_rev_day": 15.46234448
    },
    {
      "epoch": "2026-04-02T22:33:29.131200Z",
      "apogee_km": 431.6824478196204,
      "perigee_km": 423.21425796501535,
      "latitude_deg": -1.807087007355129e-05,
      "longitude_deg": -7.104161497773583,
      "height_km": 426.6976632963121,
      "semi_major_axis_km": 6805.585352892317,
      "eccentricity": 0.00062215,
      "inclination_deg": 97.3338,
      "raan_deg": 162.5486,
      "arg_perigee_deg": 23.8106,
      "mean_anomaly_deg": 336.343,
      "mean_motion_rev_day": 15.46338377
    },
    {
      "epoch": "2026-04-03T17:11:39.542496Z",
      "apogee_km": 431.40204683824777,
      "perigee_km": 422.9348857770692,
      "latitude_deg": 3.63008563114958e-05,
      "longitude_deg": 73.3733885524493,
      "height_km": 426.33919184616485,
      "semi_major_axis_km": 6805.305466307658,
      "eccentricity": 0.0006221,
      "inclination_deg": 97.333,
      "raan_deg": 163.3349,
      "arg_perigee_deg": 20.9794,
      "mean_anomaly_deg": 339.171,
      "mean_motion_rev_day": 15.46433774
    },
    {
      "epoch": "2026-04-04T04:03:53.578368Z",
      "apogee_km": 431.0738743976326,
      "perigee_km": 422.88840609381987,
      "latitude_deg": -4.837120167424043e-05,
      "longitude_deg": -89.67392185667016,
      "height_km": 426.2328748633581,
      "semi_major_axis_km": 6805.118140245726,
      "eccentricity": 0.00060142,
      "inclination_deg": 97.3329,
      "raan_deg": 163.7925,
      "arg_perigee_deg": 18.8799,
      "mean_anomaly_deg": 341.2672,
      "mean_motion_rev_day": 15.46497628
    },
    {
      "epoch": "2026-04-05T03:21:27.862848Z",
      "apogee_km": 430.76019499294944,
      "perigee_km": 422.63590242829287,
      "latitude_deg": -1.7242816284468474e-05,
      "longitude_deg": -79.04048251758519,
      "height_km": 425.8864782389103,
      "semi_major_axis_km": 6804.835048710621,
      "eccentricity": 0.00059695,
      "inclination_deg": 97.3329,
      "raan_deg": 164.7754,
      "arg_perigee_deg": 14.2722,
      "mean_anomaly_deg": 345.8695,
      "mean_motion_rev_day": 15.46594134
    },
    {
      "epoch": "2026-04-05T17:19:58.093824Z",
      "apogee_km": 430.60078409036396,
      "perigee_km": 422.4841624146684,
      "latitude_deg": 5.699441334055992e-05,
      "longitude_deg": 71.34910904837308,
      "height_km": 425.70071827316104,
      "semi_major_axis_km": 6804.679473252516,
      "eccentricity": 0.0005964,
      "inclination_deg": 97.3327,
      "raan_deg": 165.3649,
      "arg_perigee_deg": 12.152,
      "mean_anomaly_deg": 347.9873,
      "mean_motion_rev_day": 15.46647174
    },
    {
      "epoch": "2026-04-06T02:38:57.289056Z",
      "apogee_km": 430.4060819784245,
      "perigee_km": 422.47031419940595,
      "latitude_deg": 5.708806865011061e-06,
      "longitude_deg": -68.38764468360289,
      "height_km": 425.66337791660317,
      "semi_major_axis_km": 6804.575198088915,
      "eccentricity": 0.00058312,
      "inclination_deg": 97.3325,
      "raan_deg": 165.7574,
      "arg_perigee_deg": 10.5488,
      "mean_anomaly_deg": 349.5883,
      "mean_motion_rev_day": 15.46682726
    }
  ]
}